<?xml version="1.0" encoding="UTF-8"?>
<ndm xmlns:xsi="http://www.w3.org/2001/XMLSchema-instance" xsi:noNamespaceSchemaLocation="https://sanaregistry.org/r/ndmxml_unqualified/ndmxml-2.0.0-master-2.0.xsd">
<omm id="CCSDS_OMM_VERS" version="2.0">
<header><CREATION_DATE/><ORIGINATOR/></header><body><segment><metadata><OBJECT_NAME>KUIPER-00186</OBJECT_NAME><OBJECT_ID>2025-301H</OBJECT_ID><CENTER_NAME>EARTH</CENTER_NAME><REF_FRAME>TEME</REF_FRAME><TIME_SYSTEM>UTC</TIME_SYSTEM><MEAN_ELEMENT_THEORY>SGP4</MEAN_ELEMENT_THEORY></metadata><data><meanElements><EPOCH>2025-12-28T06:21:06.236928</EPOCH><MEAN_MOTION>15.35132547</MEAN_MOTION><ECCENTRICITY>.00076189</ECCENTRICITY><INCLINATION>51.8694</INCLINATION><RA_OF_ASC_NODE>50.3046</RA_OF_ASC_NODE><ARG_OF_PERICENTER>136.6335</ARG_OF_PERICENTER><MEAN_ANOMALY>223.5252</MEAN_ANOMALY></meanElements><tleParameters><EPHEMERIS_TYPE>0</EPHEMERIS_TYPE><CLASSIFICATION_TYPE>U</CLASSIFICATION_TYPE><NORAD_CAT_ID>67140</NORAD_CAT_ID><ELEMENT_SET_NO>999</ELEMENT_SET_NO><REV_AT_EPOCH>275</REV_AT_EPOCH><BSTAR>.77829289E-3</BSTAR><MEAN_MOTION_DOT>.26677E-3</MEAN_MOTION_DOT><MEAN_MOTION_DDOT>0</MEAN_MOTION_DDOT></tleParameters></data></segment></body></omm>
<omm id="CCSDS_OMM_VERS" version="2.0">
<header><CREATION_DATE/><ORIGINATOR/></header><body><segment><metadata><OBJECT_NAME>KUIPER-00187</OBJECT_NAME><OBJECT_ID>2025-301J</OBJECT_ID><CENTER_NAME>EARTH</CENTER_NAME><REF_FRAME>TEME</REF_FRAME><TIME_SYSTEM>UTC</TIME_SYSTEM><MEAN_ELEMENT_THEORY>SGP4</MEAN_ELEMENT_THEORY></metadata><data><meanElements><EPOCH>2025-12-28T06:12:05.150016</EPOCH><MEAN_MOTION>15.35922942</MEAN_MOTION><ECCENTRICITY>.00044279</ECCENTRICITY><INCLINATION>51.8719</INCLINATION><RA_OF_ASC_NODE>50.2640</RA_OF_ASC_NODE><ARG_OF_PERICENTER>120.5277</ARG_OF_PERICENTER><MEAN_ANOMALY>239.6146</MEAN_ANOMALY></meanElements><tleParameters><EPHEMERIS_TYPE>0</EPHEMERIS_TYPE><CLASSIFICATION_TYPE>U</CLASSIFICATION_TYPE><NORAD_CAT_ID>67141</NORAD_CAT_ID><ELEMENT_SET_NO>999</ELEMENT_SET_NO><REV_AT_EPOCH>275</REV_AT_EPOCH><BSTAR>.61935136E-3</BSTAR><MEAN_MOTION_DOT>.21673E-3</MEAN_MOTION_DOT><MEAN_MOTION_DDOT>0</MEAN_MOTION_DDOT></tleParameters></data></segment></body></omm>
<omm id="CCSDS_OMM_VERS" version="2.0">
<header><CREATION_DATE/><ORIGINATOR/></header><body><segment><metadata><OBJECT_NAME>KUIPER-00188</OBJECT_NAME><OBJECT_ID>2025-301K</OBJECT_ID><CENTER_NAME>EARTH</CENTER_NAME><REF_FRAME>TEME</REF_FRAME><TIME_SYSTEM>UTC</TIME_SYSTEM><MEAN_ELEMENT_THEORY>SGP4</MEAN_ELEMENT_THEORY></metadata><data><meanElements><EPOCH>2025-12-28T06:22:11.273664</EPOCH><MEAN_MOTION>15.35039062</MEAN_MOTION><ECCENTRICITY>.00073823</ECCENTRICITY><INCLINATION>51.8705</INCLINATION><RA_OF_ASC_NODE>50.3094</RA_OF_ASC_NODE><ARG_OF_PERICENTER>141.3354</ARG_OF_PERICENTER><MEAN_ANOMALY>218.8161</MEAN_ANOMALY></meanElements><tleParameters><EPHEMERIS_TYPE>0</EPHEMERIS_TYPE><CLASSIFICATION_TYPE>U</CLASSIFICATION_TYPE><NORAD_CAT_ID>67142</NORAD_CAT_ID><ELEMENT_SET_NO>999</ELEMENT_SET_NO><REV_AT_EPOCH>275</REV_AT_EPOCH><BSTAR>.77979145E-3</BSTAR><MEAN_MOTION_DOT>.26647E-3</MEAN_MOTION_DOT><MEAN_MOTION_DDOT>0</MEAN_MOTION_DDOT></tleParameters></data></segment></body></omm>
<omm id="CCSDS_OMM_VERS" version="2.0">
<header><CREATION_DATE/><ORIGINATOR/></header><body><segment><metadata><OBJECT_NAME>KUIPER-00191</OBJECT_NAME><OBJECT_ID>2025-301L</OBJECT_ID><CENTER_NAME>EARTH</CENTER_NAME><REF_FRAME>TEME</REF_FRAME><TIME_SYSTEM>UTC</TIME_SYSTEM><MEAN_ELEMENT_THEORY>SGP4</MEAN_ELEMENT_THEORY></metadata><data><meanElements><EPOCH>2025-12-28T06:19:34.038624</EPOCH><MEAN_MOTION>15.35276221</MEAN_MOTION><ECCENTRICITY>.00066435</ECCENTRICITY><INCLINATION>51.8680</INCLINATION><RA_OF_ASC_NODE>50.2981</RA_OF_ASC_NODE><ARG_OF_PERICENTER>136.3794</ARG_OF_PERICENTER><MEAN_ANOMALY>223.7718</MEAN_ANOMALY></meanElements><tleParameters><EPHEMERIS_TYPE>0</EPHEMERIS_TYPE><CLASSIFICATION_TYPE>U</CLASSIFICATION_TYPE><NORAD_CAT_ID>67143</NORAD_CAT_ID><ELEMENT_SET_NO>999</ELEMENT_SET_NO><REV_AT_EPOCH>278</REV_AT_EPOCH><BSTAR>.10352895E-2</BSTAR><MEAN_MOTION_DOT>.35814E-3</MEAN_MOTION_DOT><MEAN_MOTION_DDOT>0</MEAN_MOTION_DDOT></tleParameters></data></segment></body></omm>
<omm id="CCSDS_OMM_VERS" version="2.0">
<header><CREATION_DATE/><ORIGINATOR/></header><body><segment><metadata><OBJECT_NAME>KUIPER-00196</OBJECT_NAME><OBJECT_ID>2025-301M</OBJECT_ID><CENTER_NAME>EARTH</CENTER_NAME><REF_FRAME>TEME</REF_FRAME><TIME_SYSTEM>UTC</TIME_SYSTEM><MEAN_ELEMENT_THEORY>SGP4</MEAN_ELEMENT_THEORY></metadata><data><meanElements><EPOCH>2025-12-28T06:09:39.561696</EPOCH><MEAN_MOTION>15.36045107</MEAN_MOTION><ECCENTRICITY>.00037923</ECCENTRICITY><INCLINATION>51.8736</INCLINATION><RA_OF_ASC_NODE>50.2506</RA_OF_ASC_NODE><ARG_OF_PERICENTER>102.3115</ARG_OF_PERICENTER><MEAN_ANOMALY>257.8296</MEAN_ANOMALY></meanElements><tleParameters><EPHEMERIS_TYPE>0</EPHEMERIS_TYPE><CLASSIFICATION_TYPE>U</CLASSIFICATION_TYPE><NORAD_CAT_ID>67144</NORAD_CAT_ID><ELEMENT_SET_NO>999</ELEMENT_SET_NO><REV_AT_EPOCH>275</REV_AT_EPOCH><BSTAR>.56164847E-3</BSTAR><MEAN_MOTION_DOT>.19689E-3</MEAN_MOTION_DOT><MEAN_MOTION_DDOT>0</MEAN_MOTION_DDOT></tleParameters></data></segment></body></omm>
<omm id="CCSDS_OMM_VERS" version="2.0">
<header><CREATION_DATE/><ORIGINATOR/></header><body><segment><metadata><OBJECT_NAME>KUIPER-00204</OBJECT_NAME><OBJECT_ID>2025-301N</OBJECT_ID><CENTER_NAME>EARTH</CENTER_NAME><REF_FRAME>TEME</REF_FRAME><TIME_SYSTEM>UTC</TIME_SYSTEM><MEAN_ELEMENT_THEORY>SGP4</MEAN_ELEMENT_THEORY></metadata><data><meanElements><EPOCH>2025-12-28T07:37:30.423936</EPOCH><MEAN_MOTION>15.36625772</MEAN_MOTION><ECCENTRICITY>.00021379</ECCENTRICITY><INCLINATION>51.8746</INCLINATION><RA_OF_ASC_NODE>49.9039</RA_OF_ASC_NODE><ARG_OF_PERICENTER>79.4962</ARG_OF_PERICENTER><MEAN_ANOMALY>280.6265</MEAN_ANOMALY></meanElements><tleParameters><EPHEMERIS_TYPE>0</EPHEMERIS_TYPE><CLASSIFICATION_TYPE>U</CLASSIFICATION_TYPE><NORAD_CAT_ID>67145</NORAD_CAT_ID><ELEMENT_SET_NO>999</ELEMENT_SET_NO><REV_AT_EPOCH>287</REV_AT_EPOCH><BSTAR>.60555422E-3</BSTAR><MEAN_MOTION_DOT>.21668E-3</MEAN_MOTION_DOT><MEAN_MOTION_DDOT>0</MEAN_MOTION_DDOT></tleParameters></data></segment></body></omm>
<omm id="CCSDS_OMM_VERS" version="2.0">
<header><CREATION_DATE/><ORIGINATOR/></header><body><segment><metadata><OBJECT_NAME>KUIPER-00210</OBJECT_NAME><OBJECT_ID>2025-301P</OBJECT_ID><CENTER_NAME>EARTH</CENTER_NAME><REF_FRAME>TEME</REF_FRAME><TIME_SYSTEM>UTC</TIME_SYSTEM><MEAN_ELEMENT_THEORY>SGP4</MEAN_ELEMENT_THEORY></metadata><data><meanElements><EPOCH>2025-12-28T06:30:53.216064</EPOCH><MEAN_MOTION>15.34279023</MEAN_MOTION><ECCENTRICITY>.00105057</ECCENTRICITY><INCLINATION>51.8613</INCLINATION><RA_OF_ASC_NODE>50.3456</RA_OF_ASC_NODE><ARG_OF_PERICENTER>156.2712</ARG_OF_PERICENTER><MEAN_ANOMALY>203.8759</MEAN_ANOMALY></meanElements><tleParameters><EPHEMERIS_TYPE>0</EPHEMERIS_TYPE><CLASSIFICATION_TYPE>U</CLASSIFICATION_TYPE><NORAD_CAT_ID>67146</NORAD_CAT_ID><ELEMENT_SET_NO>999</ELEMENT_SET_NO><REV_AT_EPOCH>292</REV_AT_EPOCH><BSTAR>.78232791E-3</BSTAR><MEAN_MOTION_DOT>.2611E-3</MEAN_MOTION_DOT><MEAN_MOTION_DDOT>0</MEAN_MOTION_DDOT></tleParameters></data></segment></body></omm>
<omm id="CCSDS_OMM_VERS" version="2.0">
<header><CREATION_DATE/><ORIGINATOR/></header><body><segment><metadata><OBJECT_NAME>KUIPER-00221</OBJECT_NAME><OBJECT_ID>2025-301Q</OBJECT_ID><CENTER_NAME>EARTH</CENTER_NAME><REF_FRAME>TEME</REF_FRAME><TIME_SYSTEM>UTC</TIME_SYSTEM><MEAN_ELEMENT_THEORY>SGP4</MEAN_ELEMENT_THEORY></metadata><data><meanElements><EPOCH>2025-12-28T06:13:09.888672</EPOCH><MEAN_MOTION>15.35769861</MEAN_MOTION><ECCENTRICITY>.00049628</ECCENTRICITY><INCLINATION>51.8726</INCLINATION><RA_OF_ASC_NODE>50.2679</RA_OF_ASC_NODE><ARG_OF_PERICENTER>120.0596</ARG_OF_PERICENTER><MEAN_ANOMALY>240.0882</MEAN_ANOMALY></meanElements><tleParameters><EPHEMERIS_TYPE>0</EPHEMERIS_TYPE><CLASSIFICATION_TYPE>U</CLASSIFICATION_TYPE><NORAD_CAT_ID>67147</NORAD_CAT_ID><ELEMENT_SET_NO>999</ELEMENT_SET_NO><REV_AT_EPOCH>275</REV_AT_EPOCH><BSTAR>-.73508448E-4</BSTAR><MEAN_MOTION_DOT>-.2983E-4</MEAN_MOTION_DOT><MEAN_MOTION_DDOT>0</MEAN_MOTION_DDOT></tleParameters></data></segment></body></omm>

</ndm>
