KUIPER-00186            
1 67140U 25301H   25362.26465552  .00026677  00000+0  77829-3 0  9995
2 67140  51.8694  50.3046 0007618 136.6335 223.5252 15.35132547  2751
KUIPER-00187            
1 67141U 25301J   25362.25839294  .00021673  00000+0  61935-3 0  9995
2 67141  51.8719  50.2640 0004427 120.5277 239.6146 15.35922942  2757
KUIPER-00188            
1 67142U 25301K   25362.26540826  .00026647  00000+0  77979-3 0  9998
2 67142  51.8705  50.3094 0007382 141.3354 218.8161 15.35039062  2755
KUIPER-00191            
1 67143U 25301L   25362.26358841  .00035814  00000+0  10353-2 0  9991
2 67143  51.8680  50.2981 0006643 136.3794 223.7718 15.35276221  2789
KUIPER-00196            
1 67144U 25301M   25362.25670789  .00019689  00000+0  56165-3 0  9993
2 67144  51.8736  50.2506 0003792 102.3115 257.8296 15.36045107  2751
KUIPER-00204            
1 67145U 25301N   25362.31771324  .00021668  00000+0  60555-3 0  9996
2 67145  51.8746  49.9039 0002137  79.4962 280.6265 15.36625772  2870
KUIPER-00210            
1 67146U 25301P   25362.27144926  .00026110  00000+0  78233-3 0  9993
2 67146  51.8613  50.3456 0010505 156.2712 203.8759 15.34279023  2921
KUIPER-00221            
1 67147U 25301Q   25362.25914223 -.00002983  00000+0 -73508-4 0  9992
2 67147  51.8726  50.2679 0004962 120.0596 240.0882 15.35769861  2758
